{
  "type": "FeatureCollection",
  "features": [
    {
      "type": "Feature",
      "properties": {
        "norad_id": 33822,
        "name": "COSMOS 2251 DEB",
        "group": "cosmos-2251-debris",
        "lat": 32.464087562288896,
        "lon": -169.08378635369874,
        "alt_km": 954.9348540494166,
        "timestamp": "2025-12-20T05:41:50.423953+00:00",
        "meta_object_name": "COSMOS 2251 DEB",
        "meta_object_id": "1993-036BP",
        "meta_epoch": "2025-12-19T23:28:11.226144",
        "meta_mean_motion": 14.13102659,
        "meta_eccentricity": 0.01529233,
        "meta_inclination": 74.0676,
        "meta_ra_of_asc_node": 180.9038,
        "meta_arg_of_pericenter": 225.4594,
        "meta_mean_anomaly": 288.7225,
        "meta_ephemeris_type": 0,
        "meta_classification_type": "U",
        "meta_norad_cat_id": 33822,
        "meta_element_set_no": 999,
        "meta_rev_at_epoch": 86156,
        "meta_bstar": 0.00089599017,
        "meta_mean_motion_dot": 1.846e-05,
        "meta_mean_motion_ddot": 0,
        "tle_line1": "1 33822U 93036BP  25353.97790771  .00001846  00000+0  89599-3 0  9995",
        "tle_line2": "2 33822  74.0676 180.9038 0152923 225.4594 288.7225 14.13102659861564"
      },
      "geometry": {
        "type": "Point",
        "coordinates": [
          -169.08378635369874,
          32.464087562288896
        ]
      }
    },
    {
      "type": "Feature",
      "properties": {
        "norad_id": 33823,
        "name": "COSMOS 2251 DEB",
        "group": "cosmos-2251-debris",
        "lat": -12.446222257545,
        "lon": -40.13334887842303,
        "alt_km": 839.8729737811273,
        "timestamp": "2025-12-20T05:41:50.423964+00:00",
        "meta_object_name": "COSMOS 2251 DEB",
        "meta_object_id": "1993-036BQ",
        "meta_epoch": "2025-12-19T18:47:19.256064",
        "meta_mean_motion": 13.98966342,
        "meta_eccentricity": 0.02093966,
        "meta_inclination": 73.8095,
        "meta_ra_of_asc_node": 136.9865,
        "meta_arg_of_pericenter": 261.0165,
        "meta_mean_anomaly": 165.7872,
        "meta_ephemeris_type": 0,
        "meta_classification_type": "U",
        "meta_norad_cat_id": 33823,
        "meta_element_set_no": 999,
        "meta_rev_at_epoch": 85708,
        "meta_bstar": 0.00054768877,
        "meta_mean_motion_dot": 9.28e-06,
        "meta_mean_motion_ddot": 0,
        "tle_line1": "1 33823U 93036BQ  25353.78286176  .00000928  00000+0  54769-3 0  9995",
        "tle_line2": "2 33823  73.8095 136.9865 0209396 261.0165 165.7872 13.98966342857086"
      },
      "geometry": {
        "type": "Point",
        "coordinates": [
          -40.13334887842303,
          -12.446222257545
        ]
      }
    },
    {
      "type": "Feature",
      "properties": {
        "norad_id": 33825,
        "name": "COSMOS 2251 DEB",
        "group": "cosmos-2251-debris",
        "lat": -41.00821811571955,
        "lon": -1.2518384964871516,
        "alt_km": 612.1421749244928,
        "timestamp": "2025-12-20T05:41:50.423975+00:00",
        "meta_object_name": "COSMOS 2251 DEB",
        "meta_object_id": "1993-036BS",
        "meta_epoch": "2025-12-19T12:39:12.132864",
        "meta_mean_motion": 14.69819223,
        "meta_eccentricity": 0.0084889,
        "meta_inclination": 73.9846,
        "meta_ra_of_asc_node": 14.5916,
        "meta_arg_of_pericenter": 340.0201,
        "meta_mean_anomaly": 181.1837,
        "meta_ephemeris_type": 0,
        "meta_classification_type": "U",
        "meta_norad_cat_id": 33825,
        "meta_element_set_no": 999,
        "meta_rev_at_epoch": 88979,
        "meta_bstar": 0.00055764,
        "meta_mean_motion_dot": 3.487e-05,
        "meta_mean_motion_ddot": 0,
        "tle_line1": "1 33825U 93036BS  25353.52722376  .00003487  00000+0  55764-3 0  9995",
        "tle_line2": "2 33825  73.9846  14.5916 0084889 340.0201 181.1837 14.69819223889798"
      },
      "geometry": {
        "type": "Point",
        "coordinates": [
          -1.2518384964871516,
          -41.00821811571955
        ]
      }
    },
    {
      "type": "Feature",
      "properties": {
        "norad_id": 33826,
        "name": "COSMOS 2251 DEB",
        "group": "cosmos-2251-debris",
        "lat": 71.37800106773793,
        "lon": 93.76521511132368,
        "alt_km": 654.1285932915516,
        "timestamp": "2025-12-20T05:41:50.423985+00:00",
        "meta_object_name": "COSMOS 2251 DEB",
        "meta_object_id": "1993-036BT",
        "meta_epoch": "2025-12-19T19:56:36.279744",
        "meta_mean_motion": 14.51753576,
        "meta_eccentricity": 0.0082567,
        "meta_inclination": 74.0645,
        "meta_ra_of_asc_node": 36.5442,
        "meta_arg_of_pericenter": 78.4901,
        "meta_mean_anomaly": 38.5603,
        "meta_ephemeris_type": 0,
        "meta_classification_type": "U",
        "meta_norad_cat_id": 33826,
        "meta_element_set_no": 999,
        "meta_rev_at_epoch": 87872,
        "meta_bstar": 0.00039967235,
        "meta_mean_motion_dot": 1.65e-05,
        "meta_mean_motion_ddot": 0,
        "tle_line1": "1 33826U 93036BT  25353.83097546  .00001650  00000+0  39967-3 0  9991",
        "tle_line2": "2 33826  74.0645  36.5442 0082567  78.4901  38.5603 14.51753576878722"
      },
      "geometry": {
        "type": "Point",
        "coordinates": [
          93.76521511132368,
          71.37800106773793
        ]
      }
    },
    {
      "type": "Feature",
      "properties": {
        "norad_id": 33828,
        "name": "COSMOS 2251 DEB",
        "group": "cosmos-2251-debris",
        "lat": 40.62020112691376,
        "lon": 29.94487806360136,
        "alt_km": 760.1508541362491,
        "timestamp": "2025-12-20T05:41:50.423997+00:00",
        "meta_object_name": "COSMOS 2251 DEB",
        "meta_object_id": "1993-036BV",
        "meta_epoch": "2025-12-19T09:56:49.770816",
        "meta_mean_motion": 14.44351517,
        "meta_eccentricity": 0.0029509,
        "meta_inclination": 74.0455,
        "meta_ra_of_asc_node": 225.6783,
        "meta_arg_of_pericenter": 297.5824,
        "meta_mean_anomaly": 242.6425,
        "meta_ephemeris_type": 0,
        "meta_classification_type": "U",
        "meta_norad_cat_id": 33828,
        "meta_element_set_no": 999,
        "meta_rev_at_epoch": 88409,
        "meta_bstar": 0.00029725,
        "meta_mean_motion_dot": 1.002e-05,
        "meta_mean_motion_ddot": 0,
        "tle_line1": "1 33828U 93036BV  25353.41446494  .00001002  00000+0  29725-3 0  9999",
        "tle_line2": "2 33828  74.0455 225.6783 0029509 297.5824 242.6425 14.44351517884095"
      },
      "geometry": {
        "type": "Point",
        "coordinates": [
          29.94487806360136,
          40.62020112691376
        ]
      }
    },
    {
      "type": "Feature",
      "properties": {
        "norad_id": 33830,
        "name": "COSMOS 2251 DEB",
        "group": "cosmos-2251-debris",
        "lat": 8.28285376219599,
        "lon": 33.27655517954632,
        "alt_km": 668.9674859762781,
        "timestamp": "2025-12-20T05:41:50.424007+00:00",
        "meta_object_name": "COSMOS 2251 DEB",
        "meta_object_id": "1993-036BX",
        "meta_epoch": "2025-12-19T22:56:03.092640",
        "meta_mean_motion": 14.76971474,
        "meta_eccentricity": 0.00425729,
        "meta_inclination": 74.0314,
        "meta_ra_of_asc_node": 216.218,
        "meta_arg_of_pericenter": 334.858,
        "meta_mean_anomaly": 138.831,
        "meta_ephemeris_type": 0,
        "meta_classification_type": "U",
        "meta_norad_cat_id": 33830,
        "meta_element_set_no": 999,
        "meta_rev_at_epoch": 89578,
        "meta_bstar": 0.00047711511,
        "meta_mean_motion_dot": 3.378e-05,
        "meta_mean_motion_ddot": 0,
        "tle_line1": "1 33830U 93036BX  25353.95559135  .00003378  00000+0  47712-3 0  9992",
        "tle_line2": "2 33830  74.0314 216.2180 0042572 334.8580 138.8310 14.76971474895780"
      },
      "geometry": {
        "type": "Point",
        "coordinates": [
          33.27655517954632,
          8.28285376219599
        ]
      }
    },
    {
      "type": "Feature",
      "properties": {
        "norad_id": 33832,
        "name": "COSMOS 2251 DEB",
        "group": "cosmos-2251-debris",
        "lat": 35.17412125686857,
        "lon": 4.043514706360164,
        "alt_km": 685.7227058353128,
        "timestamp": "2025-12-20T05:41:50.424017+00:00",
        "meta_object_name": "COSMOS 2251 DEB",
        "meta_object_id": "1993-036BZ",
        "meta_epoch": "2025-12-19T00:08:38.305824",
        "meta_mean_motion": 14.60716793,
        "meta_eccentricity": 0.00244884,
        "meta_inclination": 74.0529,
        "meta_ra_of_asc_node": 198.0179,
        "meta_arg_of_pericenter": 227.9336,
        "meta_mean_anomaly": 282.7247,
        "meta_ephemeris_type": 0,
        "meta_classification_type": "U",
        "meta_norad_cat_id": 33832,
        "meta_element_set_no": 999,
        "meta_rev_at_epoch": 88516,
        "meta_bstar": 0.00095588861,
        "meta_mean_motion_dot": 4.652e-05,
        "meta_mean_motion_ddot": 0,
        "tle_line1": "1 33832U 93036BZ  25353.00599891  .00004652  00000+0  95589-3 0  9994",
        "tle_line2": "2 33832  74.0529 198.0179 0024488 227.9336 282.7247 14.60716793885165"
      },
      "geometry": {
        "type": "Point",
        "coordinates": [
          4.043514706360164,
          35.17412125686857
        ]
      }
    }
  ]
}